HAWK-11A                
1 62382U 24247F   26068.51231358  .00009457  00000+0  34106-3 0  9991
2 62382  44.9941 114.3328 0005466 327.3713  32.6832 15.28849427 67741
STARLINK-35900          
1 66886U 25283J   26068.17543655  .00029525  00000+0  10055-2 0  9997
2 66886  53.1612  26.6843 0001219  73.9111 286.2024 15.30183452 15763
